ONEWEB-0379             
1 49305U 21090AC  24277.84062725  .00000202  00000+0  50937-3 0  9999
2 49305  87.8984  53.2610 0001631 101.2808 258.8505 13.14504084145930
ONEWEB-0380             
1 49306U 21090AD  24277.86651336  .00000007  00000+0 -13832-4 0  9992
2 49306  87.9125  68.5422 0001656  93.7166 266.4156 13.19725789144475
ONEWEB-0381             
1 49307U 21090AE  24277.87690168  .00000041  00000+0  68286-4 0  9990
2 49307  87.9273  38.0220 0001671  93.3237 266.8088 13.20772506147810
ONEWEB-0382             
1 49308U 21090AF  24277.86424313 -.00002828  00000+0 -69887-2 0  9990
2 49308  87.9271  38.0209 0001452 104.1361 255.9934 13.20786958147806
ONEWEB-0383             
1 49309U 21090AG  24277.91038958  .00000278  00000+0  71523-3 0  9999
2 49309  87.8981  53.2331 0001475 104.9794 255.1499 13.14501848145972
ONEWEB-0385             
1 49311U 21090AJ  24277.85637020  .00000148  00000+0  33228-3 0  9996
2 49311  87.9274  38.0363 0001397 102.5517 257.5773 13.20773296147784
ONEWEB-0386             
1 49312U 21090AK  24277.87373063  .00000133  00000+0  29487-3 0  9999
2 49312  87.9266  38.0204 0001418 101.8737 258.2555 13.20772187147807
